SL-16 R/B               
1 25407U 98045B   26086.16076905 -.00000252  00000+0 -10315-3 0  9993
2 25407  71.0105 144.8354 0007899 340.8164  19.2661 14.16194562429573
ISS (ZARYA)             
1 25544U 98067A   26086.13218663  .00012923  00000+0  24583-3 0  9993
2 25544  51.6343 346.1324 0006239 237.1062 122.9326 15.48575012559033
CZ-4B R/B               
1 25732U 99025C   26086.16294772  .00000055  00000+0  47642-4 0  9990
2 25732  98.6591 130.0279 0036040 295.3328 133.5427 14.18268695390643
OKEAN-O                 
1 25860U 99039A   26086.15849479  .00000692  00000+0  97488-4 0  9996
2 25860  97.9406 145.8693 0000883  89.0311 271.1002 14.80362711436970
SL-16 R/B               
1 25861U 99039B   26086.12194287  .00000566  00000+0  78526-4 0  9996
2 25861  97.9929 145.1894 0014416 195.7764 164.3002 14.81754602439444
DELTA 2 R/B             
1 25876U 99041E   26086.06879523  .00000798  00000+0  16794-3 0  9996
2 25876  51.7606 231.8559 0502646  39.6875 323.9733 14.11875892365481
HELIOS 1B               
1 25977U 99064A   26086.20075384  .00001645  00000+0  18666-3 0  9994
2 25977  98.1676 348.9572 0001923  50.9616 309.1770 14.87763621687866
TERRA                   
1 25994U 99068A   26086.18523173  .00000419  00000+0  94426-4 0  9995
2 25994  97.9556 138.9485 0003525 115.0425 337.8418 14.61032660397634
SL-16 R/B               
1 26070U 00006B   26086.18076082  .00000307  00000+0  18020-3 0  9998
2 26070  71.0016  61.0558 0015833 162.4820 197.6853 14.15826061351035
TITAN 4B R/B            
1 26474U 00047B   26086.18767692  .00003727  00000+0  23469-3 0  9997
2 26474  67.9913 351.3024 0039812  14.9137 345.3176 15.09722296395555
ENVISAT                 
1 27386U 02009A   26085.84785146  .00000121  00000+0  52945-4 0  9993
2 27386  98.3755  39.0396 0001221  81.5064 298.9111 14.39042714261640
IDEFIX & ARIANE 42P R/B 
1 27422U 02021B   26085.83594415  .00000292  00000+0  12742-3 0  9993
2 27422  98.5889  24.2393 0012529 132.9462 227.2774 14.31037480246470
